{"type": "FeatureCollection", "features": [ {"type": "Feature", "properties": {"norad_id": 30546, "name": "FENGYUN 1C DEB", "group": "fengyun-1c-debris", "lat": 20.405555224592817, "lon": -147.17048562672426, "alt_km": 620.9725388167317, "timestamp": "2025-12-24T16:52:41.809210+00:00", "meta": {"OBJECT_NAME": "FENGYUN 1C DEB", "OBJECT_ID": "1999-025AKL", "EPOCH": "2025-12-23T21:28:38.972928", "MEAN_MOTION": 14.87312485, "ECCENTRICITY": 0.0092922, "INCLINATION": 98.9075, "RA_OF_ASC_NODE": 215.268, "ARG_OF_PERICENTER": 126.9336, "MEAN_ANOMALY": 249.1826, "EPHEMERIS_TYPE": 0, "CLASSIFICATION_TYPE": "U", "NORAD_CAT_ID": 30546, "ELEMENT_SET_NO": 999, "REV_AT_EPOCH": 623, "BSTAR": 0.00087175, "MEAN_MOTION_DOT": 8.451e-05, "MEAN_MOTION_DDOT": 0}, "tle": {"line1": "1 30546U 99025AKL 25357.89489552  .00008451  00000+0  87175-3 0  9993", "line2": "2 30546  98.9075 215.2680 0092922 126.9336 249.1826 14.87312485  6232"}}, "geometry": {"type": "Point", "coordinates": [-147.17048562672426, 20.405555224592817]}}, {"type": "Feature", "properties": {"norad_id": 30547, "name": "FENGYUN 1C DEB", "group": "fengyun-1c-debris", "lat": 52.37203778464926, "lon": 33.858746064175904, "alt_km": 721.6780642079657, "timestamp": "2025-12-24T16:52:41.809220+00:00", "meta": {"OBJECT_NAME": "FENGYUN 1C DEB", "OBJECT_ID": "1999-025AKM", "EPOCH": "2025-12-23T09:07:56.052768", "MEAN_MOTION": 14.37767541, "ECCENTRICITY": 0.00955978, "INCLINATION": 98.9017, "RA_OF_ASC_NODE": 200.7587, "ARG_OF_PERICENTER": 185.8935, "MEAN_ANOMALY": 299.0311, "EPHEMERIS_TYPE": 0, "CLASSIFICATION_TYPE": "U", "NORAD_CAT_ID": 30547, "ELEMENT_SET_NO": 999, "REV_AT_EPOCH": 98875, "BSTAR": 0.00022984046, "MEAN_MOTION_DOT": 6.8e-06, "MEAN_MOTION_DDOT": 0}, "tle": {"line1": "1 30547U 99025AKM 25357.38050987  .00000680  00000+0  22984-3 0  9997", "line2": "2 30547  98.9017 200.7587 0095597 185.8935 299.0311 14.37767541988755"}}, "geometry": {"type": "Point", "coordinates": [33.858746064175904, 52.37203778464926]}}, {"type": "Feature", "properties": {"norad_id": 30548, "name": "FENGYUN 1C DEB", "group": "fengyun-1c-debris", "lat": -77.5900366163805, "lon": -51.68491222324976, "alt_km": 764.5620422144493, "timestamp": "2025-12-24T16:52:41.809230+00:00", "meta": {"OBJECT_NAME": "FENGYUN 1C DEB", "OBJECT_ID": "1999-025AKN", "EPOCH": "2025-12-21T23:42:27.785376", "MEAN_MOTION": 14.26960912, "ECCENTRICITY": 0.00679804, "INCLINATION": 99.6823, "RA_OF_ASC_NODE": 254.4301, "ARG_OF_PERICENTER": 309.7869, "MEAN_ANOMALY": 66.5118, "EPHEMERIS_TYPE": 0, "CLASSIFICATION_TYPE": "U", "NORAD_CAT_ID": 30548, "ELEMENT_SET_NO": 999, "REV_AT_EPOCH": 14227, "BSTAR": 0.0019268572, "MEAN_MOTION_DOT": 4.75e-05, "MEAN_MOTION_DDOT": 0}, "tle": {"line1": "1 30548U 99025AKN 25355.98782159  .00004750  00000+0  19269-2 0  9998", "line2": "2 30548  99.6823 254.4301 0067980 309.7869  66.5118 14.26960912142273"}}, "geometry": {"type": "Point", "coordinates": [-51.68491222324976, -77.5900366163805]}}, {"type": "Feature", "properties": {"norad_id": 30549, "name": "FENGYUN 1C DEB", "group": "fengyun-1c-debris", "lat": -22.215418709803956, "lon": 121.7608148087615, "alt_km": 983.7007742077376, "timestamp": "2025-12-24T16:52:41.809240+00:00", "meta": {"OBJECT_NAME": "FENGYUN 1C DEB", "OBJECT_ID": "1999-025AKP", "EPOCH": "2025-12-24T01:32:17.909952", "MEAN_MOTION": 13.98805253, "ECCENTRICITY": 0.0288458, "INCLINATION": 98.4804, "RA_OF_ASC_NODE": 117.6751, "ARG_OF_PERICENTER": 225.3605, "MEAN_ANOMALY": 132.3714, "EPHEMERIS_TYPE": 0, "CLASSIFICATION_TYPE": "U", "NORAD_CAT_ID": 30549, "ELEMENT_SET_NO": 999, "REV_AT_EPOCH": 95452, "BSTAR": 0.0024958599, "MEAN_MOTION_DOT": 5.096e-05, "MEAN_MOTION_DDOT": 0}, "tle": {"line1": "1 30549U 99025AKP 25358.06409618  .00005096  00000+0  24959-2 0  9993", "line2": "2 30549  98.4804 117.6751 0288458 225.3605 132.3714 13.98805253954522"}}, "geometry": {"type": "Point", "coordinates": [121.7608148087615, -22.215418709803956]}}, {"type": "Feature", "properties": {"norad_id": 30550, "name": "FENGYUN 1C DEB", "group": "fengyun-1c-debris", "lat": -64.6447874764916, "lon": -86.40849879110125, "alt_km": 809.0070610856837, "timestamp": "2025-12-24T16:52:41.809251+00:00", "meta": {"OBJECT_NAME": "FENGYUN 1C DEB", "OBJECT_ID": "1999-025AKQ", "EPOCH": "2025-12-23T11:14:12.023808", "MEAN_MOTION": 14.02479918, "ECCENTRICITY": 0.01313102, "INCLINATION": 99.0542, "RA_OF_ASC_NODE": 252.701, "ARG_OF_PERICENTER": 267.789, "MEAN_ANOMALY": 272.944, "EPHEMERIS_TYPE": 0, "CLASSIFICATION_TYPE": "U", "NORAD_CAT_ID": 30550, "ELEMENT_SET_NO": 999, "REV_AT_EPOCH": 95545, "BSTAR": 0.0026940074, "MEAN_MOTION_DOT": 4.426e-05, "MEAN_MOTION_DDOT": 0}, "tle": {"line1": "1 30550U 99025AKQ 25357.46819472  .00004426  00000+0  26940-2 0  9999", "line2": "2 30550  99.0542 252.7010 0131310 267.7890 272.9440 14.02479918955450"}}, "geometry": {"type": "Point", "coordinates": [-86.40849879110125, -64.6447874764916]}}, {"type": "Feature", "properties": {"norad_id": 30552, "name": "FENGYUN 1C DEB", "group": "fengyun-1c-debris", "lat": 38.09596931940828, "lon": 124.04217098666905, "alt_km": 717.1603475672937, "timestamp": "2025-12-24T16:52:41.809261+00:00", "meta": {"OBJECT_NAME": "FENGYUN 1C DEB", "OBJECT_ID": "1999-025AKS", "EPOCH": "2025-12-23T14:17:39.408864", "MEAN_MOTION": 14.55018023, "ECCENTRICITY": 0.00152161, "INCLINATION": 98.8352, "RA_OF_ASC_NODE": 129.8761, "ARG_OF_PERICENTER": 221.7529, "MEAN_ANOMALY": 138.2506, "EPHEMERIS_TYPE": 0, "CLASSIFICATION_TYPE": "U", "NORAD_CAT_ID": 30552, "ELEMENT_SET_NO": 999, "REV_AT_EPOCH": 97810, "BSTAR": 0.0030231632, "MEAN_MOTION_DOT": 0.00013016, "MEAN_MOTION_DDOT": 0}, "tle": {"line1": "1 30552U 99025AKS 25357.59559501  .00013016  00000+0  30232-2 0  9993", "line2": "2 30552  98.8352 129.8761 0015216 221.7529 138.2506 14.55018023978108"}}, "geometry": {"type": "Point", "coordinates": [124.04217098666905, 38.09596931940828]}}, {"type": "Feature", "properties": {"norad_id": 30553, "name": "FENGYUN 1C DEB", "group": "fengyun-1c-debris", "lat": 46.777367026529, "lon": -75.08725853200924, "alt_km": 635.2939234104751, "timestamp": "2025-12-24T16:52:41.809272+00:00", "meta": {"OBJECT_NAME": "FENGYUN 1C DEB", "OBJECT_ID": "1999-025AKT", "EPOCH": "2025-12-24T04:51:58.876992", "MEAN_MOTION": 14.72707718, "ECCENTRICITY": 0.00192024, "INCLINATION": 99.13, "RA_OF_ASC_NODE": 94.498, "ARG_OF_PERICENTER": 117.1899, "MEAN_ANOMALY": 243.1265, "EPHEMERIS_TYPE": 0, "CLASSIFICATION_TYPE": "U", "NORAD_CAT_ID": 30553, "ELEMENT_SET_NO": 999, "REV_AT_EPOCH": 98642, "BSTAR": 0.0035162114, "MEAN_MOTION_DOT": 0.00022507, "MEAN_MOTION_DDOT": 0}, "tle": {"line1": "1 30553U 99025AKT 25358.20276478  .00022507  00000+0  35162-2 0  9994", "line2": "2 30553  99.1300  94.4980 0019202 117.1899 243.1265 14.72707718986420"}}, "geometry": {"type": "Point", "coordinates": [-75.08725853200924, 46.777367026529]}}, {"type": "Feature", "properties": {"norad_id": 30555, "name": "FENGYUN 1C DEB", "group": "fengyun-1c-debris", "lat": -36.01732762483981, "lon": -134.31194090486528, "alt_km": 799.4802080099071, "timestamp": "2025-12-24T16:52:41.809282+00:00", "meta": {"OBJECT_NAME": "FENGYUN 1C DEB", "OBJECT_ID": "1999-025AKV", "EPOCH": "2025-12-24T02:28:50.774016", "MEAN_MOTION": 14.20867539, "ECCENTRICITY": 0.00432418, "INCLINATION": 98.7561, "RA_OF_ASC_NODE": 51.5271, "ARG_OF_PERICENTER": 238.63, "MEAN_ANOMALY": 151.1342, "EPHEMERIS_TYPE": 0, "CLASSIFICATION_TYPE": "U", "NORAD_CAT_ID": 30555, "ELEMENT_SET_NO": 999, "REV_AT_EPOCH": 97097, "BSTAR": 0.0013746281, "MEAN_MOTION_DOT": 2.957e-05, "MEAN_MOTION_DDOT": 0}, "tle": {"line1": "1 30555U 99025AKV 25358.10336544  .00002957  00000+0  13746-2 0  9997", "line2": "2 30555  98.7561  51.5271 0043241 238.6300 151.1342 14.20867539970977"}}, "geometry": {"type": "Point", "coordinates": [-134.31194090486528, -36.01732762483981]}}, {"type": "Feature", "properties": {"norad_id": 30556, "name": "FENGYUN 1C DEB", "group": "fengyun-1c-debris", "lat": -64.36921232455661, "lon": 152.71323929583545, "alt_km": 858.90994692614, "timestamp": "2025-12-24T16:52:41.809292+00:00", "meta": {"OBJECT_NAME": "FENGYUN 1C DEB", "OBJECT_ID": "1999-025AKW", "EPOCH": "2025-12-23T22:50:23.633088", "MEAN_MOTION": 14.01373798, "ECCENTRICITY": 0.0068688, "INCLINATION": 98.7806, "RA_OF_ASC_NODE": 350.7828, "ARG_OF_PERICENTER": 205.9554, "MEAN_ANOMALY": 209.6115, "EPHEMERIS_TYPE": 0, "CLASSIFICATION_TYPE": "U", "NORAD_CAT_ID": 30556, "ELEMENT_SET_NO": 999, "REV_AT_EPOCH": 96414, "BSTAR": 0.00017282, "MEAN_MOTION_DOT": 2.24e-06, "MEAN_MOTION_DDOT": 0}, "tle": {"line1": "1 30556U 99025AKW 25357.95166242  .00000224  00000+0  17282-3 0  9991", "line2": "2 30556  98.7806 350.7828 0068688 205.9554 209.6115 14.01373798964149"}}, "geometry": {"type": "Point", "coordinates": [152.71323929583545, -64.36921232455661]}}, {"type": "Feature", "properties": {"norad_id": 30557, "name": "FENGYUN 1C DEB", "group": "fengyun-1c-debris", "lat": 54.67563646627613, "lon": 50.97242852948371, "alt_km": 891.0118523920228, "timestamp": "2025-12-24T16:52:41.809303+00:00", "meta": {"OBJECT_NAME": "FENGYUN 1C DEB", "OBJECT_ID": "1999-025AKX", "EPOCH": "2025-12-22T16:57:14.652576", "MEAN_MOTION": 14.10841924, "ECCENTRICITY": 0.00687056, "INCLINATION": 98.9195, "RA_OF_ASC_NODE": 61.7935, "ARG_OF_PERICENTER": 204.7549, "MEAN_ANOMALY": 155.032, "EPHEMERIS_TYPE": 0, "CLASSIFICATION_TYPE": "U", "NORAD_CAT_ID": 30557, "ELEMENT_SET_NO": 999, "REV_AT_EPOCH": 96441, "BSTAR": 0.0012107904, "MEAN_MOTION_DOT": 2.174e-05, "MEAN_MOTION_DDOT": 0}, "tle": {"line1": "1 30557U 99025AKX 25356.70641959  .00002174  00000+0  12108-2 0  9994", "line2": "2 30557  98.9195  61.7935 0068705 204.7549 155.0320 14.10841924964415"}}, "geometry": {"type": "Point", "coordinates": [50.97242852948371, 54.67563646627613]}}]}